BEIDOU-2 IGSO-1         
1 36828U 10036A   26132.68902604 -.00000041  00000+0  00000+0 0  9990
2 36828  54.2951 163.2807 0058855 224.5644 197.8413  1.00282752 57743
BEIDOU-2 G4             
1 37210U 10057A   26140.57336493 -.00000118  00000+0  00000+0 0  9998
2 37210   3.5798  69.0979 0005766 208.2627 327.2653  1.00271608 57014
BEIDOU-2 IGSO-2         
1 37256U 10068A   26137.67739373 -.00000224  00000+0  00000+0 0  9999
2 37256  47.6069 272.2104 0054652 211.9480 101.4506  1.00292865 56485
BEIDOU-2 IGSO-3         
1 37384U 11013A   26134.75077336 -.00000206  00000+0  00000+0 0  9992
2 37384  62.3634  40.4703 0033942 185.9417  24.6219  1.00276202 55324
BEIDOU-2 IGSO-4         
1 37763U 11038A   26140.54024924  .00000018  00000+0  00000+0 0  9999
2 37763  54.5938 165.9188 0158481 231.3601 127.4243  1.00290213 54373
BEIDOU-2 IGSO-5         
1 37948U 11073A   26139.85233103 -.00000183  00000+0  00000+0 0  9990
2 37948  47.7316 271.8942 0112098 220.6126 144.0394  1.00254913 52854
BEIDOU-2 G5             
1 38091U 12008A   26140.53340255  .00000052  00000+0  00000+0 0  9997
2 38091   3.5060  69.8485 0010901 270.1188 148.9279  1.00273116 52092
BEIDOU-2 M3             
1 38250U 12018A   26140.26686485 -.00000058  00000+0  00000+0 0  9990
2 38250  55.7826 305.8159 0019760 275.9345  83.8176  1.86229710 95421
BEIDOU-2 M4             
1 38251U 12018B   26140.19912060 -.00000057  00000+0  00000+0 0  9993
2 38251  55.6827 305.0343 0011032 279.8130  80.0393  1.86229401 95425
BEIDOU-2 M6             
1 38775U 12050B   26139.90895852 -.00000041  00000+0  00000+0 0  9999
2 38775  56.5208  63.8292 0014259 352.6403   7.3328  1.86230903 92783
BEIDOU-2 G6             
1 38953U 12059A   26140.39588793 -.00000180  00000+0  00000+0 0  9998
2 38953   4.3521  73.8051 0010195 320.3520  70.4672  1.00270066 49630
BEIDOU-3S IGSO-1S       
1 40549U 15019A   26140.39779461 -.00000182  00000+0  00000+0 0  9997
2 40549  49.2489 295.7932 0038082 190.0138 349.0668  1.00255434 40790
BEIDOU-3S M2S           
1 40748U 15037A   26140.40194615 -.00000058  00000+0  00000+0 0  9994
2 40748  54.8961 303.0023 0007618 265.4058  94.4834  1.86231869 73603
BEIDOU-3S M1S           
1 40749U 15037B   26139.00208343 -.00000056  00000+0  00000+0 0  9991
2 40749  54.8942 303.0383 0004029  57.2164 302.7967  1.86254720 73580
BEIDOU-3S IGSO-2S       
1 40938U 15053A   26139.81066756 -.00000155  00000+0  00000+0 0  9998
2 40938  49.2678 259.1193 0064789 191.1600 175.3820  1.00265174 39075
BEIDOU-2 IGSO-6         
1 41434U 16021A   26140.67307606 -.00000169  00000+0  00000+0 0  9999
2 41434  60.1892  38.3129 0057370 232.4449 304.1721  1.00263960 37207
BEIDOU-2 G7             
1 41586U 16037A   26140.61497670 -.00000358  00000+0  00000+0 0  9999
2 41586   1.6531  69.0559 0007281 359.5128 141.5572  1.00265272  6610
BEIDOU-3 M1             
1 43001U 17069A   26139.13738691 -.00000041  00000+0  00000+0 0  9994
2 43001  56.6686  64.0414 0011461 321.9014  38.0087  1.86230738 58062
BEIDOU-3 M2             
1 43002U 17069B   26140.14997588 -.00000041  00000+0  00000+0 0  9990
2 43002  56.6681  64.0443 0009784 344.7742  15.1909  1.86230653 58072
BEIDOU-3 M7             
1 43107U 18003A   26140.42858385 -.00000060  00000+0  00000+0 0  9998
2 43107  54.3536 303.2827 0005157  86.7095 273.3263  1.86227939 56836
BEIDOU-3 M8             
1 43108U 18003B   26140.37378898 -.00000060  00000+0  00000+0 0  9999
2 43108  54.3473 303.2667 0002128 274.9884  84.9638  1.86230797 56840
BEIDOU-3 M4             
1 43207U 18018A   26138.13174855 -.00000043  00000+0  00000+0 0  9994
2 43207  56.6264  64.1398 0007886   9.7385 350.2635  1.86230951 56188
BEIDOU-3 M3             
1 43208U 18018B   26139.27212872 -.00000041  00000+0  00000+0 0  9991
2 43208  56.6270  64.1059 0009514 335.4256  24.5205  1.86230642 56200
BEIDOU-3 M9             
1 43245U 18029A   26140.56372123 -.00000058  00000+0  00000+0 0  9992
2 43245  54.2193 300.9136 0000951 119.7583 240.2270  1.86227997 55384
BEIDOU-3 M10            
1 43246U 18029B   26140.49822240 -.00000058  00000+0  00000+0 0  9995
2 43246  54.2177 300.9434 0004441  38.1071 321.8999  1.86229034 55368
BEIDOU-2 IGSO-7         
1 43539U 18057A   26140.47298041 -.00000041  00000+0  00000+0 0  9997
2 43539  55.1879 163.2998 0104347 238.0165 118.8682  1.00259592 28842
BEIDOU-3 M5             
1 43581U 18062A   26140.18545609  .00000042  00000+0  00000+0 0  9993
2 43581  54.0834 183.2565 0005188 287.6308  72.3870  1.86228820 53117
BEIDOU-3 M6             
1 43582U 18062B   26137.36403050  .00000082  00000+0  00000+0 0  9997
2 43582  54.0833 183.3416 0004738  15.5717 344.5351  1.86227445 53069
BEIDOU-3 M12            
1 43602U 18067A   26137.30242253  .00000084  00000+0  00000+0 0  9997
2 43602  54.1786 182.0879 0007743  31.4775 328.6606  1.86227757 52543
BEIDOU-3 M11            
1 43603U 18067B   26140.12216785  .00000044  00000+0  00000+0 0  9999
2 43603  54.1757 181.9561 0004377  15.9012 344.1863  1.86227273 52629
BEIDOU-3 M13            
1 43622U 18072A   26139.00324684 -.00000042  00000+0  00000+0 0  9998
2 43622  56.6003  63.6232 0008188 322.9807  36.9540  1.86231208 52114
