OBJECT_NAME,OBJECT_ID,EPOCH,MEAN_MOTION,ECCENTRICITY,INCLINATION,RA_OF_ASC_NODE,ARG_OF_PERICENTER,MEAN_ANOMALY,EPHEMERIS_TYPE,CLASSIFICATION_TYPE,NORAD_CAT_ID,ELEMENT_SET_NO,REV_AT_EPOCH,BSTAR,MEAN_MOTION_DOT,MEAN_MOTION_DDOT
BEIDOU-2 IGSO-1 (C06),2010-036A,2026-05-12T16:32:11.849856,1.00282752,.00588559,54.2951,163.2807,224.5644,197.8413,0,U,36828,999,5774,0,-.41E-6,0
BEIDOU-2 G4 (C04),2010-057A,2026-05-20T13:45:38.729952,1.00271608,.00057669,3.5798,69.0979,208.2627,327.2653,0,U,37210,999,5701,0,-.118E-5,0
BEIDOU-2 IGSO-2 (C07),2010-068A,2026-05-17T16:15:26.818272,1.00292865,.00546521,47.6069,272.2104,211.9480,101.4506,0,U,37256,999,5648,0,-.224E-5,0
BEIDOU-2 IGSO-3 (C08),2011-013A,2026-05-14T18:01:06.818304,1.00276202,.00339423,62.3634,40.4703,185.9417,24.6219,0,U,37384,999,5532,0,-.206E-5,0
BEIDOU-2 IGSO-4 (C09),2011-038A,2026-05-20T12:57:57.534336,1.00290213,.01584817,54.5938,165.9188,231.3601,127.4243,0,U,37763,999,5437,0,.18E-6,0
BEIDOU-2 IGSO-5 (C10),2011-073A,2026-05-19T20:27:21.400992,1.00254913,.01120985,47.7316,271.8942,220.6126,144.0394,0,U,37948,999,5285,0,-.183E-5,0
BEIDOU-2 G5 (C05),2012-008A,2026-05-20T12:48:05.980320,1.00273116,.00109018,3.5060,69.8485,270.1188,148.9279,0,U,38091,999,5209,0,.52E-6,0
BEIDOU-2 M3 (C11),2012-018A,2026-05-20T06:24:17.123040,1.86229710,.00197607,55.7826,305.8159,275.9345,83.8176,0,U,38250,999,9542,0,-.58E-6,0
BEIDOU-2 M4 (C12),2012-018B,2026-05-20T04:46:44.019840,1.86229401,.00110325,55.6827,305.0343,279.8130,80.0393,0,U,38251,999,9542,0,-.57E-6,0
BEIDOU-2 M6 (C14),2012-050B,2026-05-19T21:48:54.016128,1.86230903,.00142592,56.5208,63.8292,352.6403,7.3328,0,U,38775,999,9278,0,-.41E-6,0
BEIDOU-2 G6 (C02),2012-059A,2026-05-20T09:30:04.717152,1.00270066,.0010195,4.3521,73.8051,320.3520,70.4672,0,U,38953,999,4963,0,-.18E-5,0
BEIDOU-3S IGSO-1S (C31),2015-019A,2026-05-20T09:32:49.454304,1.00255434,.0038082,49.2489,295.7932,190.0138,349.0668,0,U,40549,999,4079,0,-.182E-5,0
BEIDOU-3S M2S (C58),2015-037A,2026-05-20T09:38:48.147360,1.86231869,.00076189,54.8961,303.0023,265.4058,94.4834,0,U,40748,999,7360,0,-.58E-6,0
BEIDOU-3S M1S (C57),2015-037B,2026-05-19T00:03:00.008352,1.86254720,.00040296,54.8942,303.0383,57.2164,302.7967,0,U,40749,999,7358,0,-.56E-6,0
BEIDOU-3S IGSO-2S (C56),2015-053A,2026-05-19T19:27:21.677184,1.00265174,.0064789,49.2678,259.1193,191.1600,175.3820,0,U,40938,999,3907,0,-.155E-5,0
BEIDOU-2 IGSO-6 (C13),2016-021A,2026-05-20T16:09:13.771584,1.00263960,.00573707,60.1892,38.3129,232.4449,304.1721,0,U,41434,999,3720,0,-.169E-5,0
BEIDOU-2 G7 (C03),2016-037A,2026-05-20T14:45:33.986880,1.00265272,.00072815,1.6531,69.0559,359.5128,141.5572,0,U,41586,999,661,0,-.358E-5,0
BEIDOU-3 M1 (C19),2017-069A,2026-05-19T03:17:50.229024,1.86230738,.00114616,56.6686,64.0414,321.9014,38.0087,0,U,43001,999,5806,0,-.41E-6,0
BEIDOU-3 M2 (C20),2017-069B,2026-05-20T03:35:57.916032,1.86230653,.00097847,56.6681,64.0443,344.7742,15.1909,0,U,43002,999,5807,0,-.41E-6,0
BEIDOU-3 M7 (C27),2018-003A,2026-05-20T10:17:09.644640,1.86227939,.00051577,54.3536,303.2827,86.7095,273.3263,0,U,43107,999,5683,0,-.6E-6,0
BEIDOU-3 M8 (C28),2018-003B,2026-05-20T08:58:15.367872,1.86230797,.00021286,54.3473,303.2667,274.9884,84.9638,0,U,43108,999,5684,0,-.6E-6,0
BEIDOU-3 M4 (C22),2018-018A,2026-05-18T03:09:43.074720,1.86230951,.0007886,56.6264,64.1398,9.7385,350.2635,0,U,43207,999,5618,0,-.43E-6,0
BEIDOU-3 M3 (C21),2018-018B,2026-05-19T06:31:51.921408,1.86230642,.00095149,56.6270,64.1059,335.4256,24.5205,0,U,43208,999,5620,0,-.41E-6,0
BEIDOU-3 M9 (C29),2018-029A,2026-05-20T13:31:45.514272,1.86227997,.0000951,54.2193,300.9136,119.7583,240.2270,0,U,43245,999,5538,0,-.58E-6,0
BEIDOU-3 M10 (C30),2018-029B,2026-05-20T11:57:26.415360,1.86229034,.00044419,54.2177,300.9434,38.1071,321.8999,0,U,43246,999,5536,0,-.58E-6,0
BEIDOU-2 IGSO-7 (C16),2018-057A,2026-05-20T11:21:05.507424,1.00259592,.01043475,55.1879,163.2998,238.0165,118.8682,0,U,43539,999,2884,0,-.41E-6,0
BEIDOU-3 M5 (C23),2018-062A,2026-05-20T04:27:03.406176,1.86228820,.00051887,54.0834,183.2565,287.6308,72.3870,0,U,43581,999,5311,0,.42E-6,0
BEIDOU-3 M6 (C24),2018-062B,2026-05-17T08:44:12.235200,1.86227445,.00047385,54.0833,183.3416,15.5717,344.5351,0,U,43582,999,5306,0,.82E-6,0
BEIDOU-3 M12 (C26),2018-067A,2026-05-17T07:15:29.306592,1.86227757,.00077432,54.1786,182.0879,31.4775,328.6606,0,U,43602,999,5254,0,.84E-6,0
BEIDOU-3 M11 (C25),2018-067B,2026-05-20T02:55:55.302240,1.86227273,.0004377,54.1757,181.9561,15.9012,344.1863,0,U,43603,999,5262,0,.44E-6,0
BEIDOU-3 M13 (C32),2018-072A,2026-05-19T00:04:40.526976,1.86231208,.0008188,56.6003,63.6232,322.9807,36.9540,0,U,43622,999,5211,0,-.42E-6,0
